QIANFAN-81              
1 63167U 25046J   26194.86615032  .00000104  00000+0  14266-3 0  9999
2 63167  88.9724 297.7636 0013937 217.5265 142.4914 13.51023798 76269
QIANFAN-82              
1 63168U 25046K   26194.82503402  .00000103  00000+0  14047-3 0  9999
2 63168  88.9724 297.8119 0011554 223.5887 136.4352 13.51018235 76244
QIANFAN-83              
1 63169U 25046L   26194.81929662  .00000121  00000+0  14126-3 0  9997
2 63169  88.9725 297.1692 0013892 196.6166 163.4538 13.62050588 76607
QIANFAN-84              
1 63170U 25046M   26194.85408885  .00000025  00000+0  20623-4 0  9995
2 63170  88.9724 297.9415 0014726 221.5771 138.4262 13.51043812 76174
QIANFAN-85              
1 63171U 25046N   26194.84970529  .00000098  00000+0  13306-3 0  9993
2 63171  88.9723 297.8121 0012104 222.5636 137.4578 13.51016012 76245
QIANFAN-86              
1 63172U 25046P   26194.78390712  .00000075  00000+0  98126-4 0  9996
2 63172  88.9726 297.6861 0009803 225.5331 134.5019 13.51023389 76316
QIANFAN-87              
1 63173U 25046Q   26194.82922192  .00000108  00000+0  14843-3 0  9995
2 63173  88.9722 297.7851 0010522 220.5525 139.4843 13.51009000 76259
QIANFAN-88              
1 63174U 25046R   26194.84568497  .00000102  00000+0  13933-3 0  9995
2 63174  88.9724 297.7432 0010652 230.2016 129.8198 13.51016720 76280
QIANFAN-89              
1 63175U 25046S   26194.80855374  .00000091  00000+0  12265-3 0  9999
2 63175  88.9724 297.9360 0015539 222.5950 137.3997 13.51023860 76175
QIANFAN-90              
1 63176U 25046T   26194.83734447  .00000114  00000+0  15745-3 0  9992
2 63176  88.9724 297.9059 0012535 219.2138 140.8106 13.51016128 76197
QIANFAN-91              
1 66033U 25233A   26194.64762623  .00000069  00000+0  89008-4 0  9994
2 66033  88.9982  40.5129 0002012  93.6993 266.4388 13.51015012 36756
QIANFAN-92              
1 66034U 25233B   26194.50769032  .00000070  00000+0  90362-4 0  9998
2 66034  88.9965  40.4944 0001942  87.3093 272.8281 13.51013312 36736
QIANFAN-93              
1 66035U 25233C   26194.51591631  .00000064  00000+0  80482-4 0  9993
2 66035  88.9991  40.5525 0001982  92.6762 267.4616 13.51016746 36734
QIANFAN-94              
1 66036U 25233D   26194.65172440  .00000070  00000+0  89080-4 0  9992
2 66036  88.9988  40.4412 0002070  88.1323 272.0065 13.51015666 36805
QIANFAN-95              
1 66037U 25233E   26194.51184305  .00000069  00000+0  87735-4 0  9994
2 66037  88.9985  39.9983 0002141  93.3244 266.8152 13.51016627 37030
QIANFAN-96              
1 66038U 25233F   26194.61059934  .00000072  00000+0  93439-4 0  9997
2 66038  88.9983  40.5311 0002027  95.3039 264.8344 13.51015513 36740
