{"fetched_at":"2026-07-14T06:34:25.665Z","source":"https://celestrak.org/NORAD/elements/gp.php?GROUP=qianfan&FORMAT=JSON","constellation":"qianfan","records":[{"OBJECT_NAME":"QIANFAN-81","OBJECT_ID":"2025-046J","EPOCH":"2026-07-13T20:47:15.387648","CLASSIFICATION_TYPE":"U","MEAN_MOTION":13.51023798,"ECCENTRICITY":0.0013937,"INCLINATION":88.9724,"RA_OF_ASC_NODE":297.7636,"ARG_OF_PERICENTER":217.5265,"MEAN_ANOMALY":142.4914,"EPHEMERIS_TYPE":0,"NORAD_CAT_ID":63167,"ELEMENT_SET_NO":999,"REV_AT_EPOCH":7626,"BSTAR":0.00014266,"MEAN_MOTION_DOT":0.00000104,"MEAN_MOTION_DDOT":0},{"OBJECT_NAME":"QIANFAN-82","OBJECT_ID":"2025-046K","EPOCH":"2026-07-13T19:48:02.939328","CLASSIFICATION_TYPE":"U","MEAN_MOTION":13.51018235,"ECCENTRICITY":0.0011554,"INCLINATION":88.9724,"RA_OF_ASC_NODE":297.8119,"ARG_OF_PERICENTER":223.5887,"MEAN_ANOMALY":136.4352,"EPHEMERIS_TYPE":0,"NORAD_CAT_ID":63168,"ELEMENT_SET_NO":999,"REV_AT_EPOCH":7624,"BSTAR":0.00014047,"MEAN_MOTION_DOT":0.00000103,"MEAN_MOTION_DDOT":0},{"OBJECT_NAME":"QIANFAN-83","OBJECT_ID":"2025-046L","EPOCH":"2026-07-13T19:39:47.227968","CLASSIFICATION_TYPE":"U","MEAN_MOTION":13.62050588,"ECCENTRICITY":0.0013892,"INCLINATION":88.9725,"RA_OF_ASC_NODE":297.1692,"ARG_OF_PERICENTER":196.6166,"MEAN_ANOMALY":163.4538,"EPHEMERIS_TYPE":0,"NORAD_CAT_ID":63169,"ELEMENT_SET_NO":999,"REV_AT_EPOCH":7660,"BSTAR":0.00014126,"MEAN_MOTION_DOT":0.00000121,"MEAN_MOTION_DDOT":0},{"OBJECT_NAME":"QIANFAN-84","OBJECT_ID":"2025-046M","EPOCH":"2026-07-13T20:29:53.276640","CLASSIFICATION_TYPE":"U","MEAN_MOTION":13.51043812,"ECCENTRICITY":0.0014726,"INCLINATION":88.9724,"RA_OF_ASC_NODE":297.9415,"ARG_OF_PERICENTER":221.5771,"MEAN_ANOMALY":138.4262,"EPHEMERIS_TYPE":0,"NORAD_CAT_ID":63170,"ELEMENT_SET_NO":999,"REV_AT_EPOCH":7617,"BSTAR":0.000020623,"MEAN_MOTION_DOT":2.5e-7,"MEAN_MOTION_DDOT":0},{"OBJECT_NAME":"QIANFAN-85","OBJECT_ID":"2025-046N","EPOCH":"2026-07-13T20:23:34.537056","CLASSIFICATION_TYPE":"U","MEAN_MOTION":13.51016012,"ECCENTRICITY":0.0012104,"INCLINATION":88.9723,"RA_OF_ASC_NODE":297.8121,"ARG_OF_PERICENTER":222.5636,"MEAN_ANOMALY":137.4578,"EPHEMERIS_TYPE":0,"NORAD_CAT_ID":63171,"ELEMENT_SET_NO":999,"REV_AT_EPOCH":7624,"BSTAR":0.00013306,"MEAN_MOTION_DOT":9.8e-7,"MEAN_MOTION_DDOT":0},{"OBJECT_NAME":"QIANFAN-86","OBJECT_ID":"2025-046P","EPOCH":"2026-07-13T18:48:49.575168","CLASSIFICATION_TYPE":"U","MEAN_MOTION":13.51023389,"ECCENTRICITY":0.0009803,"INCLINATION":88.9726,"RA_OF_ASC_NODE":297.6861,"ARG_OF_PERICENTER":225.5331,"MEAN_ANOMALY":134.5019,"EPHEMERIS_TYPE":0,"NORAD_CAT_ID":63172,"ELEMENT_SET_NO":999,"REV_AT_EPOCH":7631,"BSTAR":0.000098126,"MEAN_MOTION_DOT":7.5e-7,"MEAN_MOTION_DDOT":0},{"OBJECT_NAME":"QIANFAN-87","OBJECT_ID":"2025-046Q","EPOCH":"2026-07-13T19:54:04.773888","CLASSIFICATION_TYPE":"U","MEAN_MOTION":13.51009,"ECCENTRICITY":0.0010522,"INCLINATION":88.9722,"RA_OF_ASC_NODE":297.7851,"ARG_OF_PERICENTER":220.5525,"MEAN_ANOMALY":139.4843,"EPHEMERIS_TYPE":0,"NORAD_CAT_ID":63173,"ELEMENT_SET_NO":999,"REV_AT_EPOCH":7625,"BSTAR":0.00014843,"MEAN_MOTION_DOT":0.00000108,"MEAN_MOTION_DDOT":0},{"OBJECT_NAME":"QIANFAN-88","OBJECT_ID":"2025-046R","EPOCH":"2026-07-13T20:17:47.181408","CLASSIFICATION_TYPE":"U","MEAN_MOTION":13.5101672,"ECCENTRICITY":0.0010652,"INCLINATION":88.9724,"RA_OF_ASC_NODE":297.7432,"ARG_OF_PERICENTER":230.2016,"MEAN_ANOMALY":129.8198,"EPHEMERIS_TYPE":0,"NORAD_CAT_ID":63174,"ELEMENT_SET_NO":999,"REV_AT_EPOCH":7628,"BSTAR":0.00013933,"MEAN_MOTION_DOT":0.00000102,"MEAN_MOTION_DDOT":0},{"OBJECT_NAME":"QIANFAN-89","OBJECT_ID":"2025-046S","EPOCH":"2026-07-13T19:24:19.043136","CLASSIFICATION_TYPE":"U","MEAN_MOTION":13.5102386,"ECCENTRICITY":0.0015539,"INCLINATION":88.9724,"RA_OF_ASC_NODE":297.936,"ARG_OF_PERICENTER":222.595,"MEAN_ANOMALY":137.3997,"EPHEMERIS_TYPE":0,"NORAD_CAT_ID":63175,"ELEMENT_SET_NO":999,"REV_AT_EPOCH":7617,"BSTAR":0.00012265,"MEAN_MOTION_DOT":9.1e-7,"MEAN_MOTION_DDOT":0},{"OBJECT_NAME":"QIANFAN-90","OBJECT_ID":"2025-046T","EPOCH":"2026-07-13T20:05:46.562208","CLASSIFICATION_TYPE":"U","MEAN_MOTION":13.51016128,"ECCENTRICITY":0.0012535,"INCLINATION":88.9724,"RA_OF_ASC_NODE":297.9059,"ARG_OF_PERICENTER":219.2138,"MEAN_ANOMALY":140.8106,"EPHEMERIS_TYPE":0,"NORAD_CAT_ID":63176,"ELEMENT_SET_NO":999,"REV_AT_EPOCH":7619,"BSTAR":0.00015745,"MEAN_MOTION_DOT":0.00000114,"MEAN_MOTION_DDOT":0},{"OBJECT_NAME":"QIANFAN-91","OBJECT_ID":"2025-233A","EPOCH":"2026-07-13T15:32:34.906272","CLASSIFICATION_TYPE":"U","MEAN_MOTION":13.51015012,"ECCENTRICITY":0.0002012,"INCLINATION":88.9982,"RA_OF_ASC_NODE":40.5129,"ARG_OF_PERICENTER":93.6993,"MEAN_ANOMALY":266.4388,"EPHEMERIS_TYPE":0,"NORAD_CAT_ID":66033,"ELEMENT_SET_NO":999,"REV_AT_EPOCH":3675,"BSTAR":0.000089008,"MEAN_MOTION_DOT":6.9e-7,"MEAN_MOTION_DDOT":0},{"OBJECT_NAME":"QIANFAN-92","OBJECT_ID":"2025-233B","EPOCH":"2026-07-13T12:11:04.443648","CLASSIFICATION_TYPE":"U","MEAN_MOTION":13.51013312,"ECCENTRICITY":0.00019422,"INCLINATION":88.9965,"RA_OF_ASC_NODE":40.4944,"ARG_OF_PERICENTER":87.3093,"MEAN_ANOMALY":272.8281,"EPHEMERIS_TYPE":0,"NORAD_CAT_ID":66034,"ELEMENT_SET_NO":999,"REV_AT_EPOCH":3673,"BSTAR":0.00009036242,"MEAN_MOTION_DOT":7e-7,"MEAN_MOTION_DDOT":0},{"OBJECT_NAME":"QIANFAN-93","OBJECT_ID":"2025-233C","EPOCH":"2026-07-13T12:22:55.169184","CLASSIFICATION_TYPE":"U","MEAN_MOTION":13.51016746,"ECCENTRICITY":0.0001982,"INCLINATION":88.9991,"RA_OF_ASC_NODE":40.5525,"ARG_OF_PERICENTER":92.6762,"MEAN_ANOMALY":267.4616,"EPHEMERIS_TYPE":0,"NORAD_CAT_ID":66035,"ELEMENT_SET_NO":999,"REV_AT_EPOCH":3673,"BSTAR":0.000080481645,"MEAN_MOTION_DOT":6.4e-7,"MEAN_MOTION_DDOT":0},{"OBJECT_NAME":"QIANFAN-94","OBJECT_ID":"2025-233D","EPOCH":"2026-07-13T15:38:28.988160","CLASSIFICATION_TYPE":"U","MEAN_MOTION":13.51015666,"ECCENTRICITY":0.000207,"INCLINATION":88.9988,"RA_OF_ASC_NODE":40.4412,"ARG_OF_PERICENTER":88.1323,"MEAN_ANOMALY":272.0065,"EPHEMERIS_TYPE":0,"NORAD_CAT_ID":66036,"ELEMENT_SET_NO":999,"REV_AT_EPOCH":3680,"BSTAR":0.00008908,"MEAN_MOTION_DOT":7e-7,"MEAN_MOTION_DDOT":0},{"OBJECT_NAME":"QIANFAN-95","OBJECT_ID":"2025-233E","EPOCH":"2026-07-13T12:17:03.239520","CLASSIFICATION_TYPE":"U","MEAN_MOTION":13.51016627,"ECCENTRICITY":0.00021418,"INCLINATION":88.9985,"RA_OF_ASC_NODE":39.9983,"ARG_OF_PERICENTER":93.3244,"MEAN_ANOMALY":266.8152,"EPHEMERIS_TYPE":0,"NORAD_CAT_ID":66037,"ELEMENT_SET_NO":999,"REV_AT_EPOCH":3703,"BSTAR":0.000087735353,"MEAN_MOTION_DOT":6.9e-7,"MEAN_MOTION_DDOT":0},{"OBJECT_NAME":"QIANFAN-96","OBJECT_ID":"2025-233F","EPOCH":"2026-07-13T14:39:15.782976","CLASSIFICATION_TYPE":"U","MEAN_MOTION":13.51015513,"ECCENTRICITY":0.0002027,"INCLINATION":88.9983,"RA_OF_ASC_NODE":40.5311,"ARG_OF_PERICENTER":95.3039,"MEAN_ANOMALY":264.8344,"EPHEMERIS_TYPE":0,"NORAD_CAT_ID":66038,"ELEMENT_SET_NO":999,"REV_AT_EPOCH":3674,"BSTAR":0.000093439,"MEAN_MOTION_DOT":7.2e-7,"MEAN_MOTION_DDOT":0}]}
